ONEWEB-0247             
1 48777U 21045L   23261.78698776  .00000060  00000+0  12555-3 0  9993
2 48777  87.8953  98.7954 0002380  86.4808 273.6595 13.15550247112615
ONEWEB-0245             
1 48778U 21045M   23261.85883513  .00000142  00000+0  34310-3 0  9991
2 48778  87.8940  98.7954 0001951  75.3999 284.7348 13.15546388112590
ONEWEB-0229             
1 48779U 21045N   23261.85248994  .00000126  00000+0  30108-3 0  9993
2 48779  87.8941  98.7861 0001894  90.1547 269.9801 13.15550600112624
ONEWEB-0228             
1 48780U 21045P   23261.79016080 -.00000027  00000+0 -10450-3 0  9997
2 48780  87.8939  98.7793 0001842  87.1643 272.9698 13.15551300112539
ONEWEB-0232             
1 48781U 21045Q   23261.78488020  .00000143  00000+0  34537-3 0  9993
2 48781  87.8894  98.8551 0001768  80.8614 279.2716 13.15554310112858
ONEWEB-0231             
1 48782U 21045R   23261.83980288  .00000155  00000+0  37735-3 0  9999
2 48782  87.8950  98.7928 0002054  86.1307 274.0058 13.15549622112555
ONEWEB-0234             
1 48783U 21045S   23261.78918020  .00000923  00000+0  24176-2 0  9996
2 48783  87.8941  98.7864 0001663  75.9055 284.2260 13.15545743112688
ONEWEB-0238             
1 48784U 21045T   23261.80072485 -.00000026  00000+0 -10441-3 0  9993
2 48784  87.8941  98.7943 0001653  79.9574 280.1743 13.15551195112584
